COSMOS 2425 (716)       
1 29670U 06062A   21024.43729605  .00000070  00000-0  00000-0 0  9990
2 29670  64.8835 260.3174 0024540 349.1780 191.3836  2.13107775109600
COSMOS 2433 (720)       
1 32275U 07052A   21023.77353586 -.00000030  00000-0  00000-0 0  9999
2 32275  66.0379  21.5929 0005332 259.9107 311.0993  2.13104182103109
COSMOS 2432 (719)       
1 32276U 07052B   21024.31247475 -.00000028  00000-0  00000-0 0  9997
2 32276  66.0506  21.6664 0011710 317.0657 257.0194  2.13103470103114
COSMOS 2434 (721)       
1 32393U 07065A   21024.35074124  .00000072  00000-0  00000-0 0  9992
2 32393  64.5005 258.8448 0003966  71.6908 110.1308  2.13103000101822
COSMOS 2436 (723)       
1 32395U 07065C   21024.31321350  .00000071  00000-0  00000-0 0  9995
2 32395  64.5092 258.8979 0015962   3.5859 285.6000  2.13102887101758
COSMOS 2456 (730)       
1 36111U 09070A   21024.48941391 -.00000009  00000-0  00000-0 0  9996
2 36111  64.2548 138.5195 0002565 331.2616 129.4102  2.13099126 86494
COSMOS 2457 (733)       
1 36112U 09070B   21024.27983356 -.00000009  00000-0  00000-0 0  9991
2 36112  64.2375 138.4147 0006295 155.5917 267.5239  2.13101369 86492
COSMOS 2459 (731)       
1 36400U 10007A   21023.97564515 -.00000031  00000-0  00000-0 0  9996
2 36400  65.9362  20.5286 0025750 343.5794 238.6063  2.13104996 84828
COSMOS 2461 (735)       
1 36401U 10007B   21023.97594608 -.00000031  00000-0  00000-0 0  9993
2 36401  65.9314  20.4930 0019841 359.0378 225.3547  2.13103680 84835
COSMOS 2460 (732)       
1 36402U 10007C   21024.48131485 -.00000030  00000-0  00000-0 0  9990
2 36402  65.9188  20.4363 0002653 272.9294 282.5393  2.13106528 84847
COSMOS 2464 (736)       
1 37139U 10041C   21024.24234895  .00000072  00000-0  00000-0 0  9994
2 37139  64.1004 258.1776 0028779  11.9060 308.7445  2.13100729 80897
COSMOS 2471 (701K)      
1 37372U 11009A   21023.83630944 -.00000031  00000-0  00000-0 0  9993
2 37372  65.9152  20.3967 0010534 234.9807 349.1973  2.13107335 77101
COSMOS 2476 (744)       
1 37867U 11064A   21024.50563399 -.00000007  00000-0  00000-0 0  9990
2 37867  64.5515 139.6751 0019420 233.6460 140.5627  2.13101819 71842
COSMOS 2477 (745)       
1 37868U 11064B   21023.83769058 -.00000006  00000-0  00000-0 0  9995
2 37868  64.5593 139.7565 0016851 234.0099 166.1796  2.13101649 71786
COSMOS 2475 (743)       
1 37869U 11064C   21024.26630463 -.00000007  00000-0  00000-0 0  9992
2 37869  64.5669 139.7456 0020358 256.8420  69.7506  2.13101767 71796
COSMOS 2485 (747)       
1 39155U 13019A   21024.47644860 -.00000007  00000-0  00000-0 0  9993
2 39155  64.7184 139.9931 0019909 228.9926 167.3488  2.13101781 60317
COSMOS 2492 (754)       
1 39620U 14012A   21024.42997727 -.00000030  00000-0  00000-0 0  9998
2 39620  65.8082  20.1891 0015059 316.3984  79.2090  2.13103170 53267
COSMOS 2500 (755)       
1 40001U 14032A   21024.27553843 -.00000031  00000-0  00000-0 0  9996
2 40001  65.7475  20.0935 0007856 222.9912 274.1105  2.13102430 51476
COSMOS 2501 (702K)      
1 40315U 14075A   21023.82773110  .00000065  00000-0  00000-0 0  9998
2 40315  63.8140 259.0541 0015682 209.8524 109.5616  2.13101311 47861
COSMOS 2514 (751)       
1 41330U 16008A   21024.56376550 -.00000031  00000-0  00000-0 0  9997
2 41330  65.5499  19.9015 0011467 225.6273 315.4606  2.13102831 38649
COSMOS 2516 (753)       
1 41554U 16032A   21024.26050267  .00000069  00000-0  00000+0 0  9992
2 41554  64.0373 259.1765 0011263 217.6996 342.9201  2.13107287 36249
COSMOS 2522 (752)       
1 42939U 17055A   21024.40753863  .00000071  00000-0  00000-0 0  9998
2 42939  64.2722 259.4129 0006170 255.1905 283.9417  2.13101999 26002
COSMOS 2527 (756)       
1 43508U 18053A   21024.55706133 -.00000007  00000-0  00000-0 0  9994
2 43508  64.8834 139.8849 0007014 221.3176 104.5167  2.13102532 20297
COSMOS 2529 (757)       
1 43687U 18086A   21024.43129440  .00000071  00000-0  00000-0 0  9995
2 43687  64.4846 259.5922 0008954 279.5761 233.3420  2.13102074 17318
COSMOS 2534 (758)       
1 44299U 19030A   21023.27196688  .00000058  00000-0  00000-0 0  9999
2 44299  64.5560 259.4676 0012506 296.7002 181.7337  2.13101915 12933
COSMOS 2544 (759)       
1 44850U 19088A   21024.43342800 -.00000007  00000-0  00000-0 0  9998
2 44850  64.8669 139.7516 0010497 259.4537  15.4139  2.13102283  8733
COSMOS 2545 (760)       
1 45358U 20018A   21024.53224968 -.00000032  00000-0  00000-0 0  9990
2 45358  64.8814  20.9305 0011463 255.7371 305.1431  2.13102666  6686
